[{"OBJECT_NAME":"STARLINK-32768","OBJECT_ID":"2025-003S","EPOCH":"2026-03-09T22:35:45.981024","MEAN_MOTION":15.27602656,"ECCENTRICITY":0.00012646,"INCLINATION":43.0013,"RA_OF_ASC_NODE":287.2377,"ARG_OF_PERICENTER":315.1441,"MEAN_ANOMALY":44.9309,"EPHEMERIS_TYPE":0,"CLASSIFICATION_TYPE":"U","NORAD_CAT_ID":62503,"ELEMENT_SET_NO":999,"REV_AT_EPOCH":6659,"BSTAR":0.0011049213,"MEAN_MOTION_DOT":0.00030289,"MEAN_MOTION_DDOT":0},{"OBJECT_NAME":"CZ-6A DEB","OBJECT_ID":"2022-151QB","EPOCH":"2026-03-08T18:03:47.471328","MEAN_MOTION":15.32168285,"ECCENTRICITY":0.00205863,"INCLINATION":98.6246,"RA_OF_ASC_NODE":151.4486,"ARG_OF_PERICENTER":181.9757,"MEAN_ANOMALY":178.1404,"EPHEMERIS_TYPE":0,"CLASSIFICATION_TYPE":"U","NORAD_CAT_ID":54890,"ELEMENT_SET_NO":999,"REV_AT_EPOCH":17659,"BSTAR":0.012866954,"MEAN_MOTION_DOT":0.00424465,"MEAN_MOTION_DDOT":0}]
